[{"OBJECT_NAME":"OBJECT D","OBJECT_ID":"2025-274D","EPOCH":"2026-03-09T17:23:54.815136","MEAN_MOTION":14.92403662,"ECCENTRICITY":0.0012011,"INCLINATION":97.7437,"RA_OF_ASC_NODE":359.4086,"ARG_OF_PERICENTER":332.7011,"MEAN_ANOMALY":27.3575,"EPHEMERIS_TYPE":0,"CLASSIFICATION_TYPE":"U","NORAD_CAT_ID":66653,"ELEMENT_SET_NO":999,"REV_AT_EPOCH":1537,"BSTAR":0.00025671905,"MEAN_MOTION_DOT":2.576e-5,"MEAN_MOTION_DDOT":0},{"OBJECT_NAME":"SL-14 R\/B","OBJECT_ID":"1983-099B","EPOCH":"2026-03-09T17:04:20.967456","MEAN_MOTION":14.8623395,"ECCENTRICITY":0.00204236,"INCLINATION":82.5407,"RA_OF_ASC_NODE":142.538,"ARG_OF_PERICENTER":134.9475,"MEAN_ANOMALY":225.3402,"EPHEMERIS_TYPE":0,"CLASSIFICATION_TYPE":"U","NORAD_CAT_ID":14373,"ELEMENT_SET_NO":999,"REV_AT_EPOCH":27262,"BSTAR":6.6267087e-5,"MEAN_MOTION_DOT":6.09e-6,"MEAN_MOTION_DDOT":0}]
